LUR-1                   
1 60506U 24149AQ  26068.79566301  .00009121  00000+0  32985-3 0  9998
2 60506  97.3790 148.4255 0002777 309.1571  50.9421 15.28658648 86785
STARLINK-36083          
1 66857U 25281K   26068.17580273  .00035151  00000+0  12797-2 0  9997
2 66857  43.0038 346.6606 0001277 277.8070  82.2637 15.27607923 16109
